STARLINK-2022           
1 47643U 21012Z   24205.28411401  .00000460  00000+0  49793-4 0  9999
2 47643  53.0543 200.0080 0001406  90.4385 269.6765 15.06408128190675
